IRIDIUM 33 DEB          
1 35618U 97051QQ  26197.90236417  .00000602  00000+0  13954-3 0  9994
2 35618  86.3376 258.8942 0028555  16.6838 343.5301 14.53118964685328
IRIDIUM 33 DEB          
1 35620U 97051QS  26199.08416354  .00002900  00000+0  79066-3 0  9997
2 35620  86.3847 125.4573 0126229 265.0431  93.6349 14.42450199630950
IRIDIUM 33 DEB          
1 35622U 97051QU  26199.85909315  .00095204  00000+0  29827-2 0  9996
2 35622  86.1847 153.8768 0014271 126.2424 263.5412 15.32611533906668
IRIDIUM 33 DEB          
1 35625U 97051QX  26196.54535962  .00001929  00000+0  67206-3 0  9990
2 35625  86.1909 288.6859 0102106 224.3863 196.9475 14.32019245691132
IRIDIUM 33 DEB          
1 35628U 97051RA  26195.95856089  .00002829  00000+0  45990-3 0  9999
2 35628  86.3546 273.2493 0008542 319.3029  40.7547 14.70762679895923
IRIDIUM 33 DEB          
1 35631U 97051RD  26200.23394491  .00000335  00000+0  84831-4 0  9993
2 35631  86.3662 286.8583 0019059 110.7126 279.2967 14.47847124903582
IRIDIUM 33 DEB          
1 35680U 97051RJ  26198.01239676  .00000934  00000+0  36422-3 0  9999
2 35680  86.1010 285.5646 0144353 310.3077 171.4330 14.23243679637755
IRIDIUM 33 DEB          
1 35744U 97051RX  26197.55028613  .00002420  00000+0  36517-3 0  9992
2 35744  86.3259 227.6585 0021168 165.3842 194.7993 14.73773710905073
IRIDIUM 33 DEB          
1 35797U 97051SF  26198.39642367  .00004943  00000+0  52479-3 0  9998
2 35797  86.3318 229.8683 0013693 113.7403 246.5261 14.88775814905587
IRIDIUM 33 DEB          
1 35806U 97051SQ  26199.54412509  .00001864  00000+0  38739-3 0  9992
2 35806  86.3491 284.5425 0015060  55.9188 304.3449 14.59532540894997
IRIDIUM 33 DEB          
1 35809U 97051ST  26199.83121758  .00003749  00000+0  48973-3 0  9995
2 35809  86.3233 235.5988 0011300 190.8923 169.2055 14.80190253900290
IRIDIUM 33 DEB          
1 35846U 97051SW  26200.31901741  .00000881  00000+0  25180-3 0  9999
2 35846  86.3771 325.5150 0018745 165.6691 194.5046 14.43950095744824
IRIDIUM 33 DEB          
1 35848U 97051SY  26198.95705661  .00005132  00000+0  61672-3 0  9990
2 35848  86.3858 277.9727 0009691 151.7114 208.4637 14.83758239699064
IRIDIUM 33 DEB          
1 35850U 97051TA  26194.89661598  .00004969  00000+0  59680-3 0  9995
2 35850  86.3456 246.8156 0010585 158.8272 201.3391 14.83767816745139
IRIDIUM 33 DEB          
1 35915U 97051TY  26195.44677110  .00005091  00000+0  57193-3 0  9990
2 35915  86.3395 244.7646 0012181 156.0165 204.1630 14.86499764112557
IRIDIUM 33 DEB          
1 35918U 97051UB  26196.72303421  .00001843  00000+0  44077-3 0  9994
2 35918  86.4034 343.4094 0026623 165.7768 258.4030 14.52903137883274
IRIDIUM 33 DEB          
1 35929U 97051UN  26199.30770283  .00025325  00000+0  11591-2 0  9992
2 35929  86.3402 208.1914 0005725 296.2325  63.8329 15.20377832910667
IRIDIUM 33 DEB          
1 36011U 97051US  26199.59289676  .00000609  00000+0  17951-3 0  9992
2 36011  86.3416 301.8208 0017384 216.7392 206.7180 14.41983245676796
IRIDIUM 33 DEB          
1 36012U 97051UT  26199.79610190  .00002038  00000+0  72942-3 0  9993
2 36012  86.4423 219.3773 0215699 286.2562  71.4996 14.21493789685807
IRIDIUM 33 DEB          
1 36028U 97051VK  26196.74425196  .00014572  00000+0  98413-3 0  9999
2 36028  86.3148 204.6153 0013302   2.0014 358.1272 15.06420368903508
IRIDIUM 33 DEB          
1 36080U 97051VM  26186.55922257  .00002013  00000+0  54245-3 0  9997
2 36080  86.3205 278.6879 0017342 193.0831 166.9925 14.47430522503763
IRIDIUM 33 DEB          
1 36083U 97051VQ  26199.98884758  .00000655  00000+0  18533-3 0  9994
2 36083  86.3437 300.1496 0024943 220.0659 139.8703 14.43966529885980
IRIDIUM 33 DEB          
1 36390U 97051VU  26198.28790170  .00002246  00000+0  31847-3 0  9992
2 36390  86.2896 199.8932 0031537 133.2643 227.1216 14.76206248694543
IRIDIUM 33 DEB          
1 36483U 97051VZ  26199.08371047  .00000775  00000+0  20951-3 0  9991
2 36483  86.3816 319.4166 0011205 122.7642 237.4642 14.46559729682872
IRIDIUM 33 DEB          
1 36490U 97051WG  26198.47570999  .00004665  00000+0  59416-3 0  9998
2 36490  86.3611 272.2269 0003749  75.2635 284.9002 14.81353493896885
IRIDIUM 33 DEB          
1 36493U 97051WK  26198.45473950  .00002328  00000+0  40170-3 0  9999
2 36493  86.3556 275.1397 0008230 336.2192  23.8641 14.68062041776953
IRIDIUM 33 DEB          
1 36497U 97051WP  26199.15253479  .00004272  00000+0  75251-3 0  9991
2 36497  86.1555 152.1440 0049300  96.3404 264.3428 14.66530899688350
IRIDIUM 33 DEB          
1 37136U 97051XG  26184.91862832  .00001600  00000+0  61267-3 0  9993
2 37136  86.1710 248.1008 0077871  55.5849 305.2672 14.28364736673986
IRIDIUM 33 DEB          
1 37548U 97051XH  26181.11194211  .00003703  00000+0  89472-3 0  9992
2 37548  86.3500 316.5040 0022777 241.1042 118.7879 14.52744813684254
IRIDIUM 33 DEB          
1 37550U 97051XK  26198.98469005  .00002756  00000+0  45247-3 0  9993
2 37550  86.3768 287.3206 0005071 109.7015 250.4748 14.70324268895227
IRIDIUM 33 DEB          
1 37562U 97051XX  26197.08833657  .00002003  00000+0  42482-3 0  9997
2 37562  86.3755 309.5454 0026149  99.5373  21.7221 14.58503747894658
IRIDIUM 33 DEB          
1 37565U 97051YA  26198.96456449  .00000793  00000+0  18898-3 0  9996
2 37565  86.3472 274.8683 0014891  77.4548 282.8323 14.52453167689890
IRIDIUM 33 DEB          
1 38017U 97051YD  26200.07574240  .00007170  00000+0  16351-2 0  9992
2 38017  86.3316  70.7656 0079456  95.3063 265.7216 14.53737161645705
IRIDIUM 33 DEB          
1 38022U 97051YJ  26188.54918981  .00002086  00000+0  61185-3 0  9996
2 38022  86.2675 285.7484 0046097  86.5651 274.0821 14.42802459721740
IRIDIUM 33 DEB          
1 38028U 97051YQ  26197.43878390  .00000509  00000+0  13420-3 0  9996
2 38028  86.3234 266.4489 0029958 124.0911 236.3142 14.46784484686134
IRIDIUM 33 DEB          
1 38228U 97051ZC  26200.08319780  .00000416  00000+0  15774-3 0  9998
2 38228  86.2962 315.6314 0063171 205.5485 334.9881 14.27627297878969
IRIDIUM 33 DEB          
1 38241U 97051ZR  26198.45834874  .00001066  00000+0  23665-3 0  9996
2 38241  86.3186 254.8575 0005820  70.9983 289.1855 14.56166558633534
IRIDIUM 33 DEB          
1 38474U 97051AAB 26195.50133340  .00000946  00000+0  22950-3 0  9999
2 38474  86.3448 276.8301 0028436  92.7295 267.7166 14.51644227684183
IRIDIUM 33 DEB          
1 38477U 97051AAE 26196.80540311  .00001388  00000+0  10564-2 0  9994
2 38477  86.4076  25.9418 0394209 333.3934  24.7454 13.62184259576045
IRIDIUM 33 DEB          
1 39777U 97051AAJ 26200.06311204  .00002981  00000+0  58195-3 0  9992
2 39777  85.9559  68.5375 0055817 163.8626 196.4380 14.61619723633696
IRIDIUM 33 DEB          
1 39778U 97051AAK 26200.03006699  .00001374  00000+0  30821-3 0  9990
2 39778  86.3779 308.3391 0007069  29.5733 330.5874 14.55920043638677
IRIDIUM 33 DEB          
1 39781U 97051AAN 26198.65887560  .00002682  00000+0  97914-3 0  9991
2 39781  86.3792 168.3338 0162739 299.7912 240.3209 14.25643865111922
IRIDIUM 33 DEB          
1 40996U 97051ABJ 26200.12691025  .00021713  00000+0  11539-2 0  9990
2 40996  86.3429 257.7322 0000243 233.0305 156.6451 15.15181667657754
IRIDIUM 33 DEB          
1 40998U 97051ABL 26196.11417916  .00000731  00000+0  20036-3 0  9990
2 40998  86.3846 322.0422 0009670  90.3168  33.3456 14.45819658 97787
IRIDIUM 33 DEB          
1 46435U 97051ABN 26197.49562794  .00002290  00000+0  57641-3 0  9993
2 46435  86.2670 100.2925 0196991 288.0613 195.0447 14.39757744110154
IRIDIUM 33 DEB          
1 46734U 97051ABR 26183.54950497  .00002995  00000+0  87773-3 0  9998
2 46734  86.2619 274.1556 0039247  30.1181  27.4005 14.43173540659209
IRIDIUM 33 DEB          
1 46965U 97051ABX 26195.40991978  .00001241  00000+0  24417-3 0  9990
2 46965  86.3319 245.7928 0016957 324.7912  53.5037 14.61741836653889
IRIDIUM 33 DEB          
1 46972U 97051ACE 26192.08951663  .00000974  00000+0  23805-3 0  9998
2 46972  86.3876 308.7971 0011331 119.3591   3.5278 14.51571595646230
IRIDIUM 33 DEB          
1 46974U 97051ACG 26200.19574921  .00005278  00000+0  13277-2 0  9993
2 46974  86.3011   9.5041 0088213 178.6378 181.5084 14.48716942606670
IRIDIUM 33 DEB          
1 46979U 97051ACM 26199.03689157  .00048840  00000+0  25339-2 0  9990
2 46979  86.3187 305.4587 0019868 166.6079 193.5694 15.15763782386907
